GLOBALSTAR M001 [-]     
1 25162U 98008A   23344.78857553 -.00000067  00000+0  22431-3 0  9993
2 25162  52.0008 146.7904 0002494 135.3112 330.3581 12.38175054175034
GLOBALSTAR M004 [-]     
1 25163U 98008B   23345.20097887 -.00000091  00000+0  70389-4 0  9991
2 25163  52.0011 304.1673 0003078 129.7822 333.2791 12.63343907191660
GLOBALSTAR M002 [-]     
1 25164U 98008C   23345.55539008 -.00000079  00000+0 -57702-4 0  9997
2 25164  51.9983 188.3288 0001216 147.4784 212.6111 11.61497793119731
GLOBALSTAR M003 [-]     
1 25165U 98008D   23345.59374581  .00000037  00000+0  13469-2 0  9997
2 25165  51.9780 261.8370 0007336 260.4242 162.2977 12.11959858166092
GLOBALSTAR M015 [-]     
1 25308U 98023C   23345.60699282 -.00000110  00000+0 -84057-3 0  9999
2 25308  51.9805 227.9495 0012202 164.3126 262.3806 11.48857475130456
GLOBALSTAR M008 [-]     
1 25309U 98023D   23345.40329435 -.00000090  00000+0  51679-4 0  9999
2 25309  51.9990   3.5625 0002762  89.3876  19.7552 12.36032716169368
